[{"CCSDS_OMM_VERS":"2.0","COMMENT":"GENERATED VIA SPACE-TRACK.ORG API","CREATION_DATE":"2020-03-27T01:34:57","ORIGINATOR":"18 SPCS","OBJECT_NAME":"TBA - TO BE ASSIGNED","OBJECT_ID":"2020-020J","CENTER_NAME":"EARTH","REF_FRAME":"TEME","TIME_SYSTEM":"UTC","MEAN_ELEMENT_THEORY":"SGP4","EPOCH":"2020-03-26T17:14:14.371296","MEAN_MOTION":"15.37573373","ECCENTRICITY":"0.00236410","INCLINATION":"87.3989","RA_OF_ASC_NODE":"137.1368","ARG_OF_PERICENTER":"291.2473","MEAN_ANOMALY":"68.6256","EPHEMERIS_TYPE":"0","CLASSIFICATION_TYPE":"U","NORAD_CAT_ID":"45432","ELEMENT_SET_NO":"999","REV_AT_EPOCH":"75","BSTAR":"0.00006011100000","MEAN_MOTION_DOT":"0.00002278","MEAN_MOTION_DDOT":"0.0000000000000","SEMIMAJOR_AXIS":"6831.424","PERIOD":"93.654","APOAPSIS":"469.439","PERIAPSIS":"437.139","OBJECT_TYPE":"TBA","RCS_SIZE":null,"COUNTRY_CODE":null,"LAUNCH_DATE":null,"SITE":null,"DECAY_DATE":null,"FILE":"2724550","GP_ID":"151183903","TLE_LINE0":"0 TBA - TO BE ASSIGNED","TLE_LINE1":"1 45432U 20020J   20086.71822189 +.00002278 +00000-0 +60111-4 0  9998","TLE_LINE2":"2 45432 087.3989 137.1368 0023641 291.2473 068.6256 15.37573373000756"},{"CCSDS_OMM_VERS":"2.0","COMMENT":"GENERATED VIA SPACE-TRACK.ORG API","CREATION_DATE":"2020-03-27T14:46:09","ORIGINATOR":"18 SPCS","OBJECT_NAME":"TBA - TO BE ASSIGNED","OBJECT_ID":"2020-020J","CENTER_NAME":"EARTH","REF_FRAME":"TEME","TIME_SYSTEM":"UTC","MEAN_ELEMENT_THEORY":"SGP4","EPOCH":"2020-03-27T07:17:42.877536","MEAN_MOTION":"15.37576597","ECCENTRICITY":"0.00236140","INCLINATION":"87.3988","RA_OF_ASC_NODE":"136.9290","ARG_OF_PERICENTER":"288.7256","MEAN_ANOMALY":"71.1435","EPHEMERIS_TYPE":"0","CLASSIFICATION_TYPE":"U","NORAD_CAT_ID":"45432","ELEMENT_SET_NO":"999","REV_AT_EPOCH":"84","BSTAR":"0.00006441900000","MEAN_MOTION_DOT":"0.00002438","MEAN_MOTION_DDOT":"0.0000000000000","SEMIMAJOR_AXIS":"6831.414","PERIOD":"93.653","APOAPSIS":"469.411","PERIAPSIS":"437.148","OBJECT_TYPE":"TBA","RCS_SIZE":null,"COUNTRY_CODE":null,"LAUNCH_DATE":null,"SITE":null,"DECAY_DATE":null,"FILE":"2724731","GP_ID":"151188006","TLE_LINE0":"0 TBA - TO BE ASSIGNED","TLE_LINE1":"1 45432U 20020J   20087.30396849  .00002438  00000-0  64419-4 0  9996","TLE_LINE2":"2 45432  87.3988 136.9290 0023614 288.7256  71.1435 15.37576597   845"},{"CCSDS_OMM_VERS":"2.0","COMMENT":"GENERATED VIA SPACE-TRACK.ORG API","CREATION_DATE":"2020-03-28T02:03:33","ORIGINATOR":"18 SPCS","OBJECT_NAME":"TBA - TO BE ASSIGNED","OBJECT_ID":"2020-020J","CENTER_NAME":"EARTH","REF_FRAME":"TEME","TIME_SYSTEM":"UTC","MEAN_ELEMENT_THEORY":"SGP4","EPOCH":"2020-03-27T13:32:35.552832","MEAN_MOTION":"15.37576930","ECCENTRICITY":"0.00236060","INCLINATION":"87.3988","RA_OF_ASC_NODE":"136.8367","ARG_OF_PERICENTER":"287.5935","MEAN_ANOMALY":"72.2740","EPHEMERIS_TYPE":"0","CLASSIFICATION_TYPE":"U","NORAD_CAT_ID":"45432","ELEMENT_SET_NO":"999","REV_AT_EPOCH":"88","BSTAR":"0.00005826400000","MEAN_MOTION_DOT":"0.00002209","MEAN_MOTION_DDOT":"0.0000000000000","SEMIMAJOR_AXIS":"6831.413","PERIOD":"93.653","APOAPSIS":"469.405","PERIAPSIS":"437.152","OBJECT_TYPE":"TBA","RCS_SIZE":null,"COUNTRY_CODE":null,"LAUNCH_DATE":null,"SITE":null,"DECAY_DATE":null,"FILE":"2724965","GP_ID":"151233304","TLE_LINE0":"0 TBA - TO BE ASSIGNED","TLE_LINE1":"1 45432U 20020J   20087.56430038 +.00002209 +00000-0 +58264-4 0  9990","TLE_LINE2":"2 45432 087.3988 136.8367 0023606 287.5935 072.2740 15.37576930000887"},{"CCSDS_OMM_VERS":"2.0","COMMENT":"GENERATED VIA SPACE-TRACK.ORG API","CREATION_DATE":"2020-03-28T16:28:35","ORIGINATOR":"18 SPCS","OBJECT_NAME":"ONEWEB-0027","OBJECT_ID":"2020-020J","CENTER_NAME":"EARTH","REF_FRAME":"TEME","TIME_SYSTEM":"UTC","MEAN_ELEMENT_THEORY":"SGP4","EPOCH":"2020-03-28T05:09:47.131776","MEAN_MOTION":"15.37579430","ECCENTRICITY":"0.00235720","INCLINATION":"87.3987","RA_OF_ASC_NODE":"136.6058","ARG_OF_PERICENTER":"284.7714","MEAN_ANOMALY":"75.0927","EPHEMERIS_TYPE":"0","CLASSIFICATION_TYPE":"U","NORAD_CAT_ID":"45432","ELEMENT_SET_NO":"999","REV_AT_EPOCH":"98","BSTAR":"0.00005553700000","MEAN_MOTION_DOT":"0.00002108","MEAN_MOTION_DDOT":"0.0000000000000","SEMIMAJOR_AXIS":"6831.406","PERIOD":"93.653","APOAPSIS":"469.374","PERIAPSIS":"437.168","OBJECT_TYPE":"PAYLOAD","RCS_SIZE":"MEDIUM","COUNTRY_CODE":"UK","LAUNCH_DATE":"2020-03-21","SITE":"TTMTR","DECAY_DATE":null,"FILE":"2725390","GP_ID":"151264032","TLE_LINE0":"0 ONEWEB-0027","TLE_LINE1":"1 45432U 20020J   20088.21512884 +.00002108 +00000-0 +55537-4 0  9991","TLE_LINE2":"2 45432 087.3987 136.6058 0023572 284.7714 075.0927 15.37579430000984"},{"CCSDS_OMM_VERS":"2.0","COMMENT":"GENERATED VIA SPACE-TRACK.ORG API","CREATION_DATE":"2020-03-28T14:56:08","ORIGINATOR":"18 SPCS","OBJECT_NAME":"TBA - TO BE ASSIGNED","OBJECT_ID":"2020-020J","CENTER_NAME":"EARTH","REF_FRAME":"TEME","TIME_SYSTEM":"UTC","MEAN_ELEMENT_THEORY":"SGP4","EPOCH":"2020-03-28T12:58:22.893600","MEAN_MOTION":"15.37580767","ECCENTRICITY":"0.00235600","INCLINATION":"87.3988","RA_OF_ASC_NODE":"136.4903","ARG_OF_PERICENTER":"283.3429","MEAN_ANOMALY":"76.5198","EPHEMERIS_TYPE":"0","CLASSIFICATION_TYPE":"U","NORAD_CAT_ID":"45432","ELEMENT_SET_NO":"999","REV_AT_EPOCH":"103","BSTAR":"0.00005582600000","MEAN_MOTION_DOT":"0.00002119","MEAN_MOTION_DDOT":"0.0000000000000","SEMIMAJOR_AXIS":"6831.402","PERIOD":"93.653","APOAPSIS":"469.362","PERIAPSIS":"437.172","OBJECT_TYPE":"TBA","RCS_SIZE":null,"COUNTRY_CODE":null,"LAUNCH_DATE":null,"SITE":null,"DECAY_DATE":null,"FILE":"2725237","GP_ID":"151239880","TLE_LINE0":"0 TBA - TO BE ASSIGNED","TLE_LINE1":"1 45432U 20020J   20088.54054275  .00002119  00000-0  55826-4 0  9995","TLE_LINE2":"2 45432  87.3988 136.4903 0023560 283.3429  76.5198 15.37580767  1035"},{"CCSDS_OMM_VERS":"2.0","COMMENT":"GENERATED VIA SPACE-TRACK.ORG API","CREATION_DATE":"2020-03-29T03:02:30","ORIGINATOR":"18 SPCS","OBJECT_NAME":"ONEWEB-0027","OBJECT_ID":"2020-020J","CENTER_NAME":"EARTH","REF_FRAME":"TEME","TIME_SYSTEM":"UTC","MEAN_ELEMENT_THEORY":"SGP4","EPOCH":"2020-03-28T20:46:58.631232","MEAN_MOTION":"15.37582062","ECCENTRICITY":"0.00235460","INCLINATION":"87.3987","RA_OF_ASC_NODE":"136.3748","ARG_OF_PERICENTER":"281.9253","MEAN_ANOMALY":"77.9361","EPHEMERIS_TYPE":"0","CLASSIFICATION_TYPE":"U","NORAD_CAT_ID":"45432","ELEMENT_SET_NO":"999","REV_AT_EPOCH":"108","BSTAR":"0.00005576200000","MEAN_MOTION_DOT":"0.00002117","MEAN_MOTION_DDOT":"0.0000000000000","SEMIMAJOR_AXIS":"6831.398","PERIOD":"93.653","APOAPSIS":"469.349","PERIAPSIS":"437.178","OBJECT_TYPE":"PAYLOAD","RCS_SIZE":"MEDIUM","COUNTRY_CODE":"UK","LAUNCH_DATE":"2020-03-21","SITE":"TTMTR","DECAY_DATE":null,"FILE":"2725568","GP_ID":"151288029","TLE_LINE0":"0 ONEWEB-0027","TLE_LINE1":"1 45432U 20020J   20088.86595638 +.00002117 +00000-0 +55762-4 0  9990","TLE_LINE2":"2 45432 087.3987 136.3748 0023546 281.9253 077.9361 15.37582062001085"},{"CCSDS_OMM_VERS":"2.0","COMMENT":"GENERATED VIA SPACE-TRACK.ORG API","CREATION_DATE":"2020-03-29T16:29:49","ORIGINATOR":"18 SPCS","OBJECT_NAME":"ONEWEB-0027","OBJECT_ID":"2020-020J","CENTER_NAME":"EARTH","REF_FRAME":"TEME","TIME_SYSTEM":"UTC","MEAN_ELEMENT_THEORY":"SGP4","EPOCH":"2020-03-29T06:09:17.500320","MEAN_MOTION":"15.37583744","ECCENTRICITY":"0.00236130","INCLINATION":"87.3990","RA_OF_ASC_NODE":"136.2362","ARG_OF_PERICENTER":"280.3949","MEAN_ANOMALY":"79.4643","EPHEMERIS_TYPE":"0","CLASSIFICATION_TYPE":"U","NORAD_CAT_ID":"45432","ELEMENT_SET_NO":"999","REV_AT_EPOCH":"114","BSTAR":"0.00005650200000","MEAN_MOTION_DOT":"0.00002144","MEAN_MOTION_DDOT":"0.0000000000000","SEMIMAJOR_AXIS":"6831.393","PERIOD":"93.653","APOAPSIS":"469.389","PERIAPSIS":"437.127","OBJECT_TYPE":"PAYLOAD","RCS_SIZE":"MEDIUM","COUNTRY_CODE":"UK","LAUNCH_DATE":"2020-03-21","SITE":"TTMTR","DECAY_DATE":null,"FILE":"2725848","GP_ID":"151315078","TLE_LINE0":"0 ONEWEB-0027","TLE_LINE1":"1 45432U 20020J   20089.25645255 +.00002144 +00000-0 +56502-4 0  9998","TLE_LINE2":"2 45432 087.3990 136.2362 0023613 280.3949 079.4643 15.37583744001145"},{"CCSDS_OMM_VERS":"2.0","COMMENT":"GENERATED VIA SPACE-TRACK.ORG API","CREATION_DATE":"2020-03-29T22:26:09","ORIGINATOR":"18 SPCS","OBJECT_NAME":"ONEWEB-0027","OBJECT_ID":"2020-020J","CENTER_NAME":"EARTH","REF_FRAME":"TEME","TIME_SYSTEM":"UTC","MEAN_ELEMENT_THEORY":"SGP4","EPOCH":"2020-03-29T18:39:02.576160","MEAN_MOTION":"15.37585913","ECCENTRICITY":"0.00236010","INCLINATION":"87.3989","RA_OF_ASC_NODE":"136.0514","ARG_OF_PERICENTER":"278.1501","MEAN_ANOMALY":"81.7076","EPHEMERIS_TYPE":"0","CLASSIFICATION_TYPE":"U","NORAD_CAT_ID":"45432","ELEMENT_SET_NO":"999","REV_AT_EPOCH":"122","BSTAR":"0.00005594900000","MEAN_MOTION_DOT":"0.00002124","MEAN_MOTION_DDOT":"0.0000000000000","SEMIMAJOR_AXIS":"6831.387","PERIOD":"93.653","APOAPSIS":"469.375","PERIAPSIS":"437.129","OBJECT_TYPE":"PAYLOAD","RCS_SIZE":"MEDIUM","COUNTRY_CODE":"UK","LAUNCH_DATE":"2020-03-21","SITE":"TTMTR","DECAY_DATE":null,"FILE":"2725906","GP_ID":"151316387","TLE_LINE0":"0 ONEWEB-0027","TLE_LINE1":"1 45432U 20020J   20089.77711315  .00002124  00000-0  55949-4 0  9998","TLE_LINE2":"2 45432  87.3989 136.0514 0023601 278.1501  81.7076 15.37585913  1221"}]